NORAD_CAT_ID,OBJECT_NAME,OBJECT_TYPE,EPOCH,MEAN_MOTION,ECCENTRICITY,INCLINATION,RA_OF_ASC_NODE,ARG_OF_PERICENTER,MEAN_ANOMALY,BSTAR,MEAN_MOTION_DOT,MEAN_MOTION_DDOT,TLE_LINE0,TLE_LINE1,TLE_LINE2,SEMIMAJOR_AXIS,PERIOD,APOGEE,PERIGEE,DECAYED
55280.0,STARLINK-5331,PAYLOAD,2023-12-12 21:53:18,14.98329218,0.000229,70.0007,306.2443,271.41,88.6796,9.0939e-05,9.92e-06,0.0,0 STARLINK-5331,1 55280U 23010M   23346.91201714  .00000992  00000-0  90939-4 0  9993,2 55280  70.0007 306.2443 0002290 271.4100  88.6796 14.98329218 50282,6950.195,96.107,573.652,570.469,0.0
55280.0,STARLINK-5331,PAYLOAD,2023-12-13 02:41:42,14.98327015,0.0002473,70.0005,305.7402,263.1197,96.9681,6.3286e-05,6.62e-06,0.0,0 STARLINK-5331,1 55280U 23010M   23347.11229884  .00000662  00000-0  63286-4 0  9993,2 55280  70.0005 305.7402 0002473 263.1197  96.9681 14.98327015 50004,6950.202,96.107,573.786,570.348,0.0
55280.0,STARLINK-5331,PAYLOAD,2023-12-13 07:30:06,14.983255,0.0002501,70.0,305.2333,273.0005,87.0867,4.7482e-05,4.74e-06,0.0,0 STARLINK-5331,1 55280U 23010M   23347.31258083  .00000474  00000-0  47482-4 0  9999,2 55280  70.0000 305.2333 0002501 273.0005  87.0867 14.98325500 50348,6950.207,96.107,573.81,570.334,0.0
55280.0,STARLINK-5331,PAYLOAD,2023-12-13 21:55:19,14.98359159,0.0002056,69.9996,303.7179,261.8465,98.246,-0.00048997,-5.938e-05,0.0,0 STARLINK-5331,1 55280U 23010M   23347.91341736 -.00005938  00000-0 -48997-3 0  9996,2 55280  69.9996 303.7179 0002056 261.8465  98.2460 14.98359159 50430,6950.103,96.105,573.397,570.539,0.0
55280.0,STARLINK-5331,PAYLOAD,2023-12-14 04:19:51,14.98344265,0.00019,70.0,303.044,267.5918,92.5023,-0.00020203,-2.503e-05,0.0,0 STARLINK-5331,1 55280U 23010M   23348.18045495 -.00002503  00000-0 -20203-3 0  9994,2 55280  70.0000 303.0440 0001900 267.5918  92.5023 14.98344265 50160,6950.149,96.106,573.334,570.693,0.0
55280.0,STARLINK-5331,PAYLOAD,2023-12-14 07:32:06,14.98360886,0.0001977,69.9999,302.7082,261.9462,98.1473,-0.00037431,-4.56e-05,0.0,0 STARLINK-5331,1 55280U 23010M   23348.31396675 -.00004560  00000-0 -37431-3 0  9994,2 55280  69.9999 302.7082 0001977 261.9462  98.1473 14.98360886 50188,6950.097,96.105,573.336,570.588,0.0
55280.0,STARLINK-5331,PAYLOAD,2023-12-14 21:57:20,14.98330864,0.0002477,70.0002,301.1936,273.5658,86.5218,2.879e-05,2.51e-06,0.0,0 STARLINK-5331,1 55280U 23010M   23348.91481485  .00000251  00000-0  28790-4 0  9994,2 55280  70.0002 301.1936 0002477 273.5658  86.5218 14.98330864 50584,6950.19,96.107,573.777,570.334,0.0
55280.0,STARLINK-5331,PAYLOAD,2023-12-15 04:21:52,14.98332866,0.0002262,70.0005,300.522,257.8374,102.2532,2.9744e-05,2.62e-06,0.0,0 STARLINK-5331,1 55280U 23010M   23349.18185271  .00000262  00000-0  29744-4 0  9990,2 55280  70.0005 300.5220 0002262 257.8374 102.2532 14.98332866 50318,6950.184,96.107,573.621,570.477,0.0
55280.0,STARLINK-5331,PAYLOAD,2023-12-15 05:58:00,14.98333312,0.0002323,70.0003,300.3537,258.8447,101.2451,2.8192e-05,2.44e-06,0.0,0 STARLINK-5331,1 55280U 23010M   23349.24861249  .00000244  00000-0  28192-4 0  9999,2 55280  70.0003 300.3537 0002323 258.8447 101.2451 14.98333312 50636,6950.183,96.107,573.662,570.433,0.0
55280.0,STARLINK-5331,PAYLOAD,2023-12-15 21:59:21,14.9832132,0.0002294,70.0012,298.6698,247.7578,112.3338,9.4513e-05,1.035e-05,0.0,0 STARLINK-5331,1 55280U 23010M   23349.91621675  .00001035  00000-0  94513-4 0  9999,2 55280  70.0012 298.6698 0002294 247.7578 112.3338 14.98321320 50736,6950.22,96.108,573.679,570.49,0.0
55280.0,STARLINK-5331,PAYLOAD,2023-12-16 02:47:45,14.98329099,0.0002384,70.0007,298.1668,242.7194,117.3723,-5.9705e-05,-8.05e-06,0.0,0 STARLINK-5331,1 55280U 23010M   23350.11649700 -.00000805  00000-0 -59705-4 0  9992,2 55280  70.0007 298.1668 0002384 242.7194 117.3723 14.98329099 50454,6950.196,96.107,573.718,570.404,0.0
55280.0,STARLINK-5331,PAYLOAD,2023-12-16 06:00:01,14.9832759,0.0002171,70.0008,297.8296,248.6243,111.4684,-5.4902e-05,-7.48e-06,0.0,0 STARLINK-5331,1 55280U 23010M   23350.25001821 -.00000748  00000-0 -54902-4 0  9993,2 55280  70.0008 297.8296 0002171 248.6243 111.4684 14.98327590 50783,6950.2,96.107,573.574,570.556,0.0
55280.0,STARLINK-5331,PAYLOAD,2023-12-16 22:01:22,14.9832818,0.0002199,70.0006,296.1463,251.0801,109.012,-3.9639e-05,-5.66e-06,0.0,0 STARLINK-5331,1 55280U 23010M   23350.91761795 -.00000566  00000-0 -39639-4 0  9997,2 55280  70.0006 296.1463 0002199 251.0801 109.0120 14.98328180 50882,6950.199,96.107,573.592,570.535,0.0
55280.0,STARLINK-5331,PAYLOAD,2023-12-17 02:49:46,14.98326275,0.0002376,70.0009,295.6416,259.3879,100.7013,-3.2311e-05,-4.78e-06,0.0,0 STARLINK-5331,1 55280U 23010M   23351.11789950 -.00000478  00000-0 -32311-4 0  9995,2 55280  70.0009 295.6416 0002376 259.3879 100.7013 14.98326275 50602,6950.204,96.107,573.721,570.418,0.0
55280.0,STARLINK-5331,PAYLOAD,2023-12-17 06:02:02,14.98327937,0.0002223,70.0007,295.3053,247.3926,112.6998,-3.8354e-05,-5.5e-06,0.0,0 STARLINK-5331,1 55280U 23010M   23351.25141853 -.00000550  00000-0 -38354-4 0  9998,2 55280  70.0007 295.3053 0002223 247.3926 112.6998 14.98327937 50931,6950.199,96.107,573.609,570.519,0.0
55280.0,STARLINK-5331,PAYLOAD,2023-12-17 22:03:22,14.98335044,0.0002384,70.0001,293.6211,254.4447,105.6449,0.00010562,1.168e-05,0.0,0 STARLINK-5331,1 55280U 23010M   23351.91900962  .00001168  00000-0  10562-3 0  9999,2 55280  70.0001 293.6211 0002384 254.4447 105.6449 14.98335044 51030,6950.177,96.107,573.699,570.385,0.0
55280.0,STARLINK-5331,PAYLOAD,2023-12-18 02:51:46,14.98336725,0.0002344,70.0002,293.1163,253.2368,106.8534,0.00012355,1.382e-05,0.0,0 STARLINK-5331,1 55280U 23010M   23352.11928745  .00001382  00000-0  12355-3 0  9991,2 55280  70.0002 293.1163 0002344 253.2368 106.8534 14.98336725 50750,6950.172,96.107,573.666,570.408,0.0
55280.0,STARLINK-5331,PAYLOAD,2023-12-18 06:04:02,14.98340266,0.0002289,70.0005,292.7802,248.9686,111.1229,0.00016307,1.854e-05,0.0,0 STARLINK-5331,1 55280U 23010M   23352.25280321  .00001854  00000-0  16307-3 0  9992,2 55280  70.0005 292.7802 0002289 248.9686 111.1229 14.98340266 51082,6950.161,96.106,573.617,570.435,0.0
55280.0,STARLINK-5331,PAYLOAD,2023-12-18 22:05:23,14.98324707,0.000193,70.0025,291.1002,222.9874,137.1134,5.3853e-05,5.5e-06,0.0,0 STARLINK-5331,1 55280U 23010M   23352.92041523  .00000550  00000-0  53853-4 0  9995,2 55280  70.0025 291.1002 0001930 222.9874 137.1134 14.98324707 51188,6950.209,96.107,573.416,570.733,0.0
55280.0,STARLINK-5331,PAYLOAD,2023-12-19 02:53:48,14.98324688,0.0002339,70.0008,290.5933,242.413,117.6792,-1.904e-05,-3.2e-06,0.0,0 STARLINK-5331,1 55280U 23010M   23353.12069771 -.00000320  00000-0 -19040-4 0  9990,2 55280  70.0008 290.5933 0002339 242.4130 117.6792 14.98324688 50901,6950.209,96.107,573.7,570.449,0.0
55280.0,STARLINK-5331,PAYLOAD,2023-12-19 06:06:04,14.98325843,0.0002399,70.0,290.255,258.8331,101.2558,-2.1505e-05,-3.49e-06,0.0,0 STARLINK-5331,1 55280U 23010M   23353.25421793 -.00000349  00000-0 -21505-4 0  9990,2 55280  70.0000 290.2550 0002399 258.8331 101.2558 14.98325843 51235,6950.206,96.107,573.738,570.403,0.0
55280.0,STARLINK-5331,PAYLOAD,2023-12-20 02:55:48,14.98334579,0.0002268,70.0005,288.0669,252.9734,107.1177,-6.8381e-05,-9.09e-06,0.0,0 STARLINK-5331,1 55280U 23010M   23354.12209367 -.00000909  00000-0 -68381-4 0  9993,2 55280  70.0005 288.0669 0002268 252.9734 107.1177 14.98334579 51051,6950.179,96.107,573.62,570.467,0.0
55280.0,STARLINK-5331,PAYLOAD,2023-12-20 06:08:04,14.98335533,0.0002304,70.0003,287.73,259.9019,100.188,-4.4608e-05,-6.25e-06,0.0,0 STARLINK-5331,1 55280U 23010M   23354.25561238 -.00000625  00000-0 -44608-4 0  9996,2 55280  70.0003 287.7300 0002304 259.9019 100.1880 14.98335533 51382,6950.176,96.107,573.642,570.439,0.0
55280.0,STARLINK-5331,PAYLOAD,2023-12-20 22:09:25,14.98332056,0.0002232,70.0003,286.0454,263.4513,96.6392,0.00013371,1.503e-05,0.0,0 STARLINK-5331,1 55280U 23010M   23354.92320820  .00001503  00000-0  13371-3 0  9996,2 55280  70.0003 286.0454 0002232 263.4513  96.6392 14.98332056 51488,6950.187,96.107,573.603,570.5,0.0
55280.0,STARLINK-5331,PAYLOAD,2023-12-21 02:57:49,14.98331974,0.000208,70.0005,285.5389,269.2738,90.8183,0.00016885,1.922e-05,0.0,0 STARLINK-5331,1 55280U 23010M   23355.12348754  .00001922  00000-0  16885-3 0  9993,2 55280  70.0005 285.5389 0002080 269.2738  90.8183 14.98331974 51207,6950.187,96.107,573.497,570.606,0.0
55280.0,STARLINK-5331,PAYLOAD,2023-12-21 04:33:57,14.98334056,0.000193,70.0008,285.3713,265.0484,95.0455,0.00018812,2.153e-05,0.0,0 STARLINK-5331,1 55280U 23010M   23355.19024564  .00002153  00000-0  18812-3 0  9999,2 55280  70.0008 285.3713 0001930 265.0484  95.0455 14.98334056 51522,6950.18,96.107,573.387,570.704,0.0
55280.0,STARLINK-5331,PAYLOAD,2023-12-21 22:11:26,14.98325586,0.0002408,70.003,283.5259,206.832,153.2715,-1.2375e-05,-2.4e-06,0.0,0 STARLINK-5331,1 55280U 23010M   23355.92461404 -.00000240  00000-0 -12375-4 0  9994,2 55280  70.0030 283.5259 0002408 206.8320 153.2715 14.98325586 51631,6950.207,96.107,573.745,570.398,0.0
55280.0,STARLINK-5331,PAYLOAD,2023-12-22 02:59:51,14.98321812,0.0002143,70.0014,283.0174,242.9459,117.1481,-4.0647e-05,-5.78e-06,0.0,0 STARLINK-5331,1 55280U 23010M   23356.12489892 -.00000578  00000-0 -40647-4 0  9995,2 55280  70.0014 283.0174 0002143 242.9459 117.1481 14.98321812 51350,6950.218,96.108,573.573,570.594,0.0
55280.0,STARLINK-5331,PAYLOAD,2023-12-22 04:35:59,14.98324941,0.0001756,70.0011,282.8491,262.561,97.535,-2.8591e-05,-4.34e-06,0.0,0 STARLINK-5331,1 55280U 23010M   23356.19165909 -.00000434  00000-0 -28591-4 0  9997,2 55280  70.0011 282.8491 0001756 262.5610  97.5350 14.98324941 51679,6950.209,96.107,573.294,570.853,0.0
55280.0,STARLINK-5331,PAYLOAD,2023-12-22 20:37:16,14.98357185,0.0002191,70.0018,281.1669,227.7057,132.3916,0.00016775,1.911e-05,0.0,0 STARLINK-5331,1 55280U 23010M   23356.85922384  .00001911  00000-0  16775-3 0  9997,2 55280  70.0018 281.1669 0002191 227.7057 132.3916 14.98357185 51466,6950.109,96.105,573.497,570.451,0.0
